[{"OBJECT_NAME":"STARLINK-30712","OBJECT_ID":"2023-148A","EPOCH":"2026-03-09T22:00:01.999584","MEAN_MOTION":15.30193659,"ECCENTRICITY":0.00010393,"INCLINATION":53.1615,"RA_OF_ASC_NODE":23.1448,"ARG_OF_PERICENTER":101.5333,"MEAN_ANOMALY":70.6949,"EPHEMERIS_TYPE":0,"CLASSIFICATION_TYPE":"U","NORAD_CAT_ID":57935,"ELEMENT_SET_NO":999,"REV_AT_EPOCH":586,"BSTAR":0.00078884182,"MEAN_MOTION_DOT":0.00023072,"MEAN_MOTION_DDOT":0},{"OBJECT_NAME":"AVUM R\/B","OBJECT_ID":"2021-105D","EPOCH":"2026-03-09T22:34:58.119744","MEAN_MOTION":15.31894528,"ECCENTRICITY":0.0086274,"INCLINATION":74.9219,"RA_OF_ASC_NODE":283.347,"ARG_OF_PERICENTER":214.1912,"MEAN_ANOMALY":145.3726,"EPHEMERIS_TYPE":0,"CLASSIFICATION_TYPE":"U","NORAD_CAT_ID":49467,"ELEMENT_SET_NO":999,"REV_AT_EPOCH":23867,"BSTAR":0.00030152064,"MEAN_MOTION_DOT":0.00010411,"MEAN_MOTION_DDOT":0}]
